[{"OBJECT_NAME":"SPOT 7","OBJECT_ID":"2014-034A","EPOCH":"2026-03-09T22:30:32.970240","MEAN_MOTION":14.60861606,"ECCENTRICITY":0.00013975,"INCLINATION":98.074,"RA_OF_ASC_NODE":133.9442,"ARG_OF_PERICENTER":99.9915,"MEAN_ANOMALY":260.1443,"EPHEMERIS_TYPE":0,"CLASSIFICATION_TYPE":"U","NORAD_CAT_ID":40053,"ELEMENT_SET_NO":999,"REV_AT_EPOCH":62264,"BSTAR":0.00013040452,"MEAN_MOTION_DOT":5.92e-6,"MEAN_MOTION_DDOT":0},{"OBJECT_NAME":"SL-8 DEB","OBJECT_ID":"1988-053D","EPOCH":"2026-03-08T08:58:39.069120","MEAN_MOTION":14.59862678,"ECCENTRICITY":0.00092717,"INCLINATION":74.0527,"RA_OF_ASC_NODE":185.1938,"ARG_OF_PERICENTER":37.2821,"MEAN_ANOMALY":25.6639,"EPHEMERIS_TYPE":0,"CLASSIFICATION_TYPE":"U","NORAD_CAT_ID":19261,"ELEMENT_SET_NO":999,"REV_AT_EPOCH":98657,"BSTAR":0.000716887,"MEAN_MOTION_DOT":3.404e-5,"MEAN_MOTION_DDOT":0}]
